{
  "type": "FeatureCollection",
  "features": [
    {
      "type": "Feature",
      "properties": {
        "norad_id": 41773,
        "name": "SKYSAT-C2",
        "group": "resource",
        "lat": -31.680527265439537,
        "lon": -165.76831956639418,
        "alt_km": 462.1014653513048,
        "timestamp": "2025-12-20T09:36:01.289099+00:00",
        "meta_object_name": "SKYSAT-C2",
        "meta_object_id": "2016-058D",
        "meta_epoch": "2025-12-20T00:52:16.860000",
        "meta_mean_motion": 15.37425568,
        "meta_eccentricity": 0.0003448,
        "meta_inclination": 97.035,
        "meta_ra_of_asc_node": 18.2542,
        "meta_arg_of_pericenter": 14.0685,
        "meta_mean_anomaly": 346.0656,
        "meta_ephemeris_type": 0,
        "meta_classification_type": "U",
        "meta_norad_cat_id": 41773,
        "meta_element_set_no": 999,
        "meta_rev_at_epoch": 51748,
        "meta_bstar": 0.00022517,
        "meta_mean_motion_dot": 8.187e-05,
        "meta_mean_motion_ddot": 0,
        "tle_line1": "1 41773U 16058D   25354.03630625  .00008187  00000+0  22517-3 0  9999",
        "tle_line2": "2 41773  97.0350  18.2542 0003448  14.0685 346.0656 15.37425568517484"
      },
      "geometry": {
        "type": "Point",
        "coordinates": [
          -165.76831956639418,
          -31.680527265439537
        ]
      }
    },
    {
      "type": "Feature",
      "properties": {
        "norad_id": 41774,
        "name": "SKYSAT-C3",
        "group": "resource",
        "lat": -57.3902008536218,
        "lon": -163.16723487073233,
        "alt_km": 440.4078118114785,
        "timestamp": "2025-12-20T09:36:01.289109+00:00",
        "meta_object_name": "SKYSAT-C3",
        "meta_object_id": "2016-058E",
        "meta_epoch": "2025-12-20T02:21:14.910336",
        "meta_mean_motion": 15.44645458,
        "meta_eccentricity": 0.0001918,
        "meta_inclination": 96.9286,
        "meta_ra_of_asc_node": 27.5022,
        "meta_arg_of_pericenter": 107.9248,
        "meta_mean_anomaly": 252.2211,
        "meta_ephemeris_type": 0,
        "meta_classification_type": "U",
        "meta_norad_cat_id": 41774,
        "meta_element_set_no": 999,
        "meta_rev_at_epoch": 51839,
        "meta_bstar": 0.00028293,
        "meta_mean_motion_dot": 0.00013104,
        "meta_mean_motion_ddot": 0,
        "tle_line1": "1 41774U 16058E   25354.09808924  .00013104  00000+0  28293-3 0  9997",
        "tle_line2": "2 41774  96.9286  27.5022 0001918 107.9248 252.2211 15.44645458518390"
      },
      "geometry": {
        "type": "Point",
        "coordinates": [
          -163.16723487073233,
          -57.3902008536218
        ]
      }
    },
    {
      "type": "Feature",
      "properties": {
        "norad_id": 41785,
        "name": "ALSAT 1B",
        "group": "resource",
        "lat": -78.76961914973228,
        "lon": 142.3388231771261,
        "alt_km": 669.3620230320857,
        "timestamp": "2025-12-20T09:36:01.289119+00:00",
        "meta_object_name": "ALSAT 1B",
        "meta_object_id": "2016-059C",
        "meta_epoch": "2025-12-20T03:31:15.040704",
        "meta_mean_motion": 14.72083934,
        "meta_eccentricity": 0.0010793,
        "meta_inclination": 97.7806,
        "meta_ra_of_asc_node": 5.6172,
        "meta_arg_of_pericenter": 82.7089,
        "meta_mean_anomaly": 277.5346,
        "meta_ephemeris_type": 0,
        "meta_classification_type": "U",
        "meta_norad_cat_id": 41785,
        "meta_element_set_no": 999,
        "meta_rev_at_epoch": 49423,
        "meta_bstar": 0.00011459,
        "meta_mean_motion_dot": 6.74e-06,
        "meta_mean_motion_ddot": 0,
        "tle_line1": "1 41785U 16059C   25354.14670186  .00000674  00000+0  11459-3 0  9997",
        "tle_line2": "2 41785  97.7806   5.6172 0010793  82.7089 277.5346 14.72083934494236"
      },
      "geometry": {
        "type": "Point",
        "coordinates": [
          142.3388231771261,
          -78.76961914973228
        ]
      }
    },
    {
      "type": "Feature",
      "properties": {
        "norad_id": 41787,
        "name": "PATHFINDER 1",
        "group": "resource",
        "lat": -29.583716897468186,
        "lon": 172.3472067311152,
        "alt_km": 694.09362073585,
        "timestamp": "2025-12-20T09:36:01.289129+00:00",
        "meta_object_name": "PATHFINDER 1",
        "meta_object_id": "2016-059E",
        "meta_epoch": "2025-12-19T22:49:46.698816",
        "meta_mean_motion": 14.67332832,
        "meta_eccentricity": 0.0029853,
        "meta_inclination": 97.8135,
        "meta_ra_of_asc_node": 356.3902,
        "meta_arg_of_pericenter": 59.2562,
        "meta_mean_anomaly": 301.1577,
        "meta_ephemeris_type": 0,
        "meta_classification_type": "U",
        "meta_norad_cat_id": 41787,
        "meta_element_set_no": 999,
        "meta_rev_at_epoch": 49342,
        "meta_bstar": 0.0001042,
        "meta_mean_motion_dot": 5.46e-06,
        "meta_mean_motion_ddot": 0,
        "tle_line1": "1 41787U 16059E   25353.95123494  .00000546  00000+0  10420-3 0  9997",
        "tle_line2": "2 41787  97.8135 356.3902 0029853  59.2562 301.1577 14.67332832493421"
      },
      "geometry": {
        "type": "Point",
        "coordinates": [
          172.3472067311152,
          -29.583716897468186
        ]
      }
    },
    {
      "type": "Feature",
      "properties": {
        "norad_id": 41790,
        "name": "SCATSAT 1",
        "group": "resource",
        "lat": 16.69080971244999,
        "lon": -126.3730758759461,
        "alt_km": 612.7806409245914,
        "timestamp": "2025-12-20T09:36:01.289139+00:00",
        "meta_object_name": "SCATSAT 1",
        "meta_object_id": "2016-059H",
        "meta_epoch": "2025-12-20T03:59:58.946208",
        "meta_mean_motion": 14.78958781,
        "meta_eccentricity": 0.0056447,
        "meta_inclination": 98.1453,
        "meta_ra_of_asc_node": 50.9294,
        "meta_arg_of_pericenter": 104.5786,
        "meta_mean_anomaly": 256.1694,
        "meta_ephemeris_type": 0,
        "meta_classification_type": "U",
        "meta_norad_cat_id": 41790,
        "meta_element_set_no": 999,
        "meta_rev_at_epoch": 7512,
        "meta_bstar": 0.00013991,
        "meta_mean_motion_dot": 1.004e-05,
        "meta_mean_motion_ddot": 0,
        "tle_line1": "1 41790U 16059H   25354.16665447  .00001004  00000+0  13991-3 0  9990",
        "tle_line2": "2 41790  98.1453  50.9294 0056447 104.5786 256.1694 14.78958781 75125"
      },
      "geometry": {
        "type": "Point",
        "coordinates": [
          -126.3730758759461,
          16.69080971244999
        ]
      }
    },
    {
      "type": "Feature",
      "properties": {
        "norad_id": 41875,
        "name": "GOKTURK 1A",
        "group": "resource",
        "lat": 17.802687104561286,
        "lon": 69.29831122332392,
        "alt_km": 684.4737374588758,
        "timestamp": "2025-12-20T09:36:01.289150+00:00",
        "meta_object_name": "GOKTURK 1A",
        "meta_object_id": "2016-073A",
        "meta_epoch": "2025-12-20T05:34:45.781248",
        "meta_mean_motion": 14.62788914,
        "meta_eccentricity": 0.0001266,
        "meta_inclination": 98.1435,
        "meta_ra_of_asc_node": 246.4976,
        "meta_arg_of_pericenter": 80.1955,
        "meta_mean_anomaly": 279.939,
        "meta_ephemeris_type": 0,
        "meta_classification_type": "U",
        "meta_norad_cat_id": 41875,
        "meta_element_set_no": 999,
        "meta_rev_at_epoch": 48266,
        "meta_bstar": 0.00014557,
        "meta_mean_motion_dot": 6.96e-06,
        "meta_mean_motion_ddot": 0,
        "tle_line1": "1 41875U 16073A   25354.23247432  .00000696  00000+0  14557-3 0  9993",
        "tle_line2": "2 41875  98.1435 246.4976 0001266  80.1955 279.9390 14.62788914482663"
      },
      "geometry": {
        "type": "Point",
        "coordinates": [
          69.29831122332392,
          17.802687104561286
        ]
      }
    },
    {
      "type": "Feature",
      "properties": {
        "norad_id": 41877,
        "name": "RESOURCESAT-2A",
        "group": "resource",
        "lat": 22.61337606929076,
        "lon": -112.09923981021304,
        "alt_km": 819.0397849326973,
        "timestamp": "2025-12-20T09:36:01.289160+00:00",
        "meta_object_name": "RESOURCESAT-2A",
        "meta_object_id": "2016-074A",
        "meta_epoch": "2025-12-20T05:29:08.713248",
        "meta_mean_motion": 14.21602611,
        "meta_eccentricity": 0.0001407,
        "meta_inclination": 98.7755,
        "meta_ra_of_asc_node": 64.0413,
        "meta_arg_of_pericenter": 218.9188,
        "meta_mean_anomaly": 141.1888,
        "meta_ephemeris_type": 0,
        "meta_classification_type": "U",
        "meta_norad_cat_id": 41877,
        "meta_element_set_no": 999,
        "meta_rev_at_epoch": 46887,
        "meta_bstar": 3.5055e-05,
        "meta_mean_motion_dot": 3.2e-07,
        "meta_mean_motion_ddot": 0,
        "tle_line1": "1 41877U 16074A   25354.22857307  .00000032  00000+0  35055-4 0  9994",
        "tle_line2": "2 41877  98.7755  64.0413 0001407 218.9188 141.1888 14.21602611468875"
      },
      "geometry": {
        "type": "Point",
        "coordinates": [
          -112.09923981021304,
          22.61337606929076
        ]
      }
    }
  ]
}